NORAD_CAT_ID,OBJECT_NAME,OBJECT_TYPE,EPOCH,MEAN_MOTION,ECCENTRICITY,INCLINATION,RA_OF_ASC_NODE,ARG_OF_PERICENTER,MEAN_ANOMALY,BSTAR,MEAN_MOTION_DOT,MEAN_MOTION_DDOT,TLE_LINE0,TLE_LINE1,TLE_LINE2,SEMIMAJOR_AXIS,PERIOD,APOGEE,PERIGEE,DECAYED
56804.0,STARLINK-6069,PAYLOAD,2024-05-27 10:26:52,14.98330546,0.0002927,69.9989,166.43,267.9746,92.1078,-1.5092e-05,-2.73e-06,0.0,0 STARLINK-6069,1 56804U 23078AP  24148.43532863 -.00000273  00000-0 -15092-4 0  9991,2 56804  69.9989 166.4300 0002927 267.9746  92.1078 14.98330546 56298,6950.191,96.107,574.091,570.022,0.0
56804.0,STARLINK-6069,PAYLOAD,2024-05-27 18:27:32,14.98327477,0.0003071,69.9988,165.587,269.0113,91.0694,1.7317e-05,1.14e-06,0.0,0 STARLINK-6069,1 56804U 23078AP  24148.76912891  .00000114  00000-0  17317-4 0  9994,2 56804  69.9988 165.5870 0003071 269.0113  91.0694 14.98327477 55932,6950.201,96.107,574.2,569.931,0.0
56804.0,STARLINK-6069,PAYLOAD,2024-05-28 10:28:53,14.98331644,0.000319,69.9987,163.9044,267.1243,92.9551,-1.5919e-05,-2.83e-06,0.0,0 STARLINK-6069,1 56804U 23078AP  24149.43672548 -.00000283  00000-0 -15919-4 0  9996,2 56804  69.9987 163.9044 0003190 267.1243  92.9551 14.98331644 56441,6950.188,96.107,574.27,569.836,0.0
56804.0,STARLINK-6069,PAYLOAD,2024-05-29 04:06:21,14.98328715,0.0003253,69.9985,162.0528,267.8973,92.1814,-5.6506e-06,-1.6e-06,0.0,0 STARLINK-6069,1 56804U 23078AP  24150.17108641 -.00000160  00000-0 -56506-5 0  9999,2 56804  69.9985 162.0528 0003253 267.8973  92.1814 14.98328715 56149,6950.197,96.107,574.323,569.801,0.0
56804.0,STARLINK-6069,PAYLOAD,2024-05-29 10:30:54,14.98327772,0.0003261,69.9985,161.3793,267.7496,92.329,-1.5343e-05,-2.76e-06,0.0,0 STARLINK-6069,1 56804U 23078AP  24150.43812748 -.00000276  00000-0 -15343-4 0  9999,2 56804  69.9985 161.3793 0003261 267.7496  92.3290 14.98327772 56594,6950.2,96.107,574.331,569.798,0.0
56804.0,STARLINK-6069,PAYLOAD,2024-05-30 04:08:22,14.98331921,0.0003314,69.9983,159.5276,268.1902,91.8878,7.1152e-06,-8e-08,0.0,0 STARLINK-6069,1 56804U 23078AP  24151.17248400 -.00000008  00000-0  71152-5 0  9992,2 56804  69.9983 159.5276 0003314 268.1902  91.8878 14.98331921 56297,6950.187,96.107,574.355,569.749,0.0
56804.0,STARLINK-6069,PAYLOAD,2024-05-30 10:32:54,14.98332513,0.0003294,69.9983,158.8543,268.0218,92.0564,1.6128e-05,9.9e-07,0.0,0 STARLINK-6069,1 56804U 23078AP  24151.43952298  .00000099  00000-0  16128-4 0  9998,2 56804  69.9983 158.8543 0003294 268.0218  92.0564 14.98332513 56745,6950.185,96.107,574.34,569.761,0.0
56804.0,STARLINK-6069,PAYLOAD,2024-05-31 04:10:23,14.9833302,0.0003245,69.9987,157.0016,272.6884,87.3903,3.5219e-05,3.27e-06,0.0,0 STARLINK-6069,1 56804U 23078AP  24152.17388147  .00000327  00000-0  35219-4 0  9992,2 56804  69.9987 157.0016 0003245 272.6884  87.3903 14.98333020 56446,6950.184,96.107,574.304,569.793,0.0
56804.0,STARLINK-6069,PAYLOAD,2024-05-31 10:34:55,14.98331437,0.0003234,69.9985,156.3287,269.0583,91.0205,5.0063e-05,5.04e-06,0.0,0 STARLINK-6069,1 56804U 23078AP  24152.44092140  .00000504  00000-0  50063-4 0  9998,2 56804  69.9985 156.3287 0003234 269.0583  91.0205 14.98331437 56896,6950.188,96.107,574.301,569.806,0.0
56804.0,STARLINK-6069,PAYLOAD,2024-05-31 16:59:28,14.98329089,0.0003234,69.9985,155.6554,269.0517,91.0272,4.9358e-06,-3.4e-07,0.0,0 STARLINK-6069,1 56804U 23078AP  24152.70796381 -.00000034  00000-0  49358-5 0  9990,2 56804  69.9985 155.6554 0003234 269.0517  91.0272 14.98329089 56931,6950.196,96.107,574.308,569.813,0.0
56804.0,STARLINK-6069,PAYLOAD,2024-06-01 04:12:24,14.98328022,0.0003174,69.9986,154.4772,269.2912,90.7883,-5.6677e-05,-7.69e-06,0.0,0 STARLINK-6069,1 56804U 23078AP  24153.17528636 -.00000769  00000-0 -56677-4 0  9995,2 56804  69.9986 154.4772 0003174 269.2912  90.7883 14.98328022 56597,6950.199,96.107,574.27,569.858,0.0
56804.0,STARLINK-6069,PAYLOAD,2024-06-01 10:36:57,14.98327527,0.0003143,69.9985,153.804,269.4437,90.6362,-4.7386e-05,-6.58e-06,0.0,0 STARLINK-6069,1 56804U 23078AP  24153.44232668 -.00000658  00000-0 -47386-4 0  9996,2 56804  69.9985 153.8040 0003143 269.4437  90.6362 14.98327527 57048,6950.201,96.107,574.25,569.881,0.0
56804.0,STARLINK-6069,PAYLOAD,2024-06-02 04:14:25,14.98331156,0.0003174,69.9982,151.9518,268.2578,91.8217,-2.4802e-05,-3.89e-06,0.0,0 STARLINK-6069,1 56804U 23078AP  24154.17668323 -.00000389  00000-0 -24802-4 0  9997,2 56804  69.9982 151.9518 0003174 268.2578  91.8217 14.98331156 56742,6950.189,96.107,574.26,569.848,0.0
56804.0,STARLINK-6069,PAYLOAD,2024-06-02 09:02:49,14.98331618,0.0003174,69.9986,151.4475,268.7305,91.349,-1.1483e-05,-2.3e-06,0.0,0 STARLINK-6069,1 56804U 23078AP  24154.37696245 -.00000230  00000-0 -11483-4 0  9999,2 56804  69.9986 151.4475 0003174 268.7305  91.3490 14.98331618 57186,6950.188,96.107,574.259,569.847,0.0
56804.0,STARLINK-6069,PAYLOAD,2024-06-03 04:16:26,14.98328273,0.00032,69.9984,149.4272,269.3315,90.7478,3.7124e-05,3.5e-06,0.0,0 STARLINK-6069,1 56804U 23078AP  24155.17808300  .00000350  00000-0  37124-4 0  9996,2 56804  69.9984 149.4272 0003200 269.3315  90.7478 14.98328273 56893,6950.198,96.107,574.287,569.839,0.0
56804.0,STARLINK-6069,PAYLOAD,2024-06-03 09:04:50,14.98329763,0.0003208,69.9984,148.9224,268.7048,91.3743,4.5737e-05,4.53e-06,0.0,0 STARLINK-6069,1 56804U 23078AP  24155.37836182  .00000453  00000-0  45737-4 0  9990,2 56804  69.9984 148.9224 0003208 268.7048  91.3743 14.98329763 57335,6950.194,96.107,574.288,569.829,0.0
56804.0,STARLINK-6069,PAYLOAD,2024-06-03 17:05:30,14.98329837,0.0003238,69.9984,148.0806,269.158,90.9208,1.637e-05,1.02e-06,0.0,0 STARLINK-6069,1 56804U 23078AP  24155.71216235  .00000102  00000-0  16370-4 0  9991,2 56804  69.9984 148.0806 0003238 269.1580  90.9208 14.98329837 57389,6950.193,96.107,574.309,569.808,0.0
56804.0,STARLINK-6069,PAYLOAD,2024-06-04 09:06:51,14.98332229,0.0003212,69.9985,146.3978,269.652,90.4271,1.5392e-05,9.1e-07,0.0,0 STARLINK-6069,1 56804U 23078AP  24156.37976047  .00000091  00000-0  15392-4 0  9998,2 56804  69.9985 146.3978 0003212 269.6520  90.4271 14.98332229 57072,6950.186,96.107,574.283,569.819,0.0
56804.0,STARLINK-6069,PAYLOAD,2024-06-04 21:55:55,14.98331168,0.0003192,69.9985,145.051,269.4701,90.6093,-2.0998e-06,-1.18e-06,0.0,0 STARLINK-6069,1 56804U 23078AP  24156.91384094 -.00000118  00000-0 -20998-5 0  9994,2 56804  69.9985 145.0510 0003192 269.4701  90.6093 14.98331168 57565,6950.189,96.107,574.273,569.836,0.0
56804.0,STARLINK-6069,PAYLOAD,2024-06-05 09:08:52,14.98332404,0.0003196,69.9987,143.8729,269.7491,90.3302,1.1188e-05,4e-07,0.0,0 STARLINK-6069,1 56804U 23078AP  24157.38115922  .00000040  00000-0  11188-4 0  9990,2 56804  69.9987 143.8729 0003196 269.7491  90.3302 14.98332404 57225,6950.185,96.107,574.272,569.829,0.0
56804.0,STARLINK-6069,PAYLOAD,2024-06-05 21:57:56,14.98329359,0.0003145,69.9988,142.5262,269.9411,90.1387,-1.5304e-05,-2.76e-06,0.0,0 STARLINK-6069,1 56804U 23078AP  24157.91524154 -.00000276  00000-0 -15304-4 0  9997,2 56804  69.9988 142.5262 0003145 269.9411  90.1387 14.98329359 57712,6950.195,96.107,574.246,569.874,0.0
56804.0,STARLINK-6069,PAYLOAD,2024-06-06 09:10:53,14.98332253,0.0003122,69.9989,141.348,270.0134,90.0668,1.7146e-05,1.12e-06,0.0,0 STARLINK-6069,1 56804U 23078AP  24158.38255851  .00000112  00000-0  17146-4 0  9997,2 56804  69.9989 141.3480 0003122 270.0134  90.0668 14.98332253 57372,6950.186,96.107,574.221,569.881,0.0
56804.0,STARLINK-6069,PAYLOAD,2024-06-07 09:12:54,14.98330226,0.0002984,69.9994,138.8236,269.9421,90.1396,6.5094e-06,-1.5e-07,0.0,0 STARLINK-6069,1 56804U 23078AP  24159.38395993 -.00000015  00000-0  65094-5 0  9999,2 56804  69.9994 138.8236 0002984 269.9421  90.1396 14.98330226 57523,6950.192,96.107,574.131,569.983,0.0
56804.0,STARLINK-6069,PAYLOAD,2024-06-07 15:37:26,14.98329373,0.0002984,69.9994,138.1502,270.116,89.9657,7.6245e-07,-8.4e-07,0.0,0 STARLINK-6069,1 56804U 23078AP  24159.65100052 -.00000084  00000-0  76245-6 0  9996,2 56804  69.9994 138.1502 0002984 270.1160  89.9657 14.98329373 57972,6950.195,96.107,574.134,569.986,0.0
56804.0,STARLINK-6069,PAYLOAD,2024-06-08 07:38:46,14.98332202,0.0002923,69.9993,136.4673,268.4442,91.6382,2.9563e-05,2.6e-06,0.0,0 STARLINK-6069,1 56804U 23078AP  24160.31859752  .00000260  00000-0  29563-4 0  9993,2 56804  69.9993 136.4673 0002923 268.4442  91.6382 14.98332202 58079,6950.186,96.107,574.083,570.02,0.0
56804.0,STARLINK-6069,PAYLOAD,2024-06-08 15:39:26,14.98335868,0.000293,69.9993,135.6257,268.3096,91.7727,6.1355e-05,6.39e-06,0.0,0 STARLINK-6069,1 56804U 23078AP  24160.65239338  .00000639  00000-0  61355-4 0  9997,2 56804  69.9993 135.6257 0002930 268.3096  91.7727 14.98335868 57715,6950.175,96.107,574.076,570.003,0.0
56804.0,STARLINK-6069,PAYLOAD,2024-06-09 07:40:46,14.98341176,0.0003087,69.9992,133.9427,266.8091,93.2715,0.00010547,1.166e-05,0.0,0 STARLINK-6069,1 56804U 23078AP  24161.31998418  .00001166  00000-0  10547-3 0  9994,2 56804  69.9992 133.9427 0003087 266.8091  93.2715 14.98341176 57810,6950.158,96.106,574.169,569.878,0.0
56804.0,STARLINK-6069,PAYLOAD,2024-06-09 15:41:27,14.983343,0.0003538,69.9992,133.1006,270.9091,89.1663,8.7542e-06,1.1e-07,0.0,0 STARLINK-6069,1 56804U 23078AP  24161.65378831  .00000011  00000-0  87542-5 0  9991,2 56804  69.9992 133.1006 0003538 270.9091  89.1663 14.98334300 57864,6950.18,96.107,574.504,569.586,0.0
56804.0,STARLINK-6069,PAYLOAD,2024-06-10 04:30:33,14.98319464,0.0003083,69.9991,131.7529,269.7066,90.3739,-0.0001649,-2.059e-05,0.0,0 STARLINK-6069,1 56804U 23078AP  24162.18788584 -.00002059  00000-0 -16490-3 0  9998,2 56804  69.9991 131.7529 0003083 269.7066  90.3739 14.98319464 57941,6950.225,96.108,574.233,569.948,0.0
56804.0,STARLINK-6069,PAYLOAD,2024-06-10 07:42:49,14.98318158,0.0002981,69.9997,131.418,266.7722,93.3096,-0.00012903,-1.632e-05,0.0,0 STARLINK-6069,1 56804U 23078AP  24162.32140650 -.00001632  00000-0 -12903-3 0  9991,2 56804  69.9997 131.4180 0002981 266.7722  93.3096 14.98318158 58375,6950.23,96.108,574.166,570.023,0.0
